CBERS 4A                
1 44883U 19093E   26181.59855082  .00000773  00000+0  10567-3 0  9997
2 44883  98.0193 249.0500 0000528 118.5065 241.6201 14.81420513353062
WEILAI 1R               
1 44884U 19093F   26181.52336985  .00004608  00000+0  36701-3 0  9996
2 44884  97.7878 271.4305 0017279 356.1868   3.9221 15.00754958354420
FLORIPASAT-1            
1 44885U 19093G   26181.53216014  .00006162  00000+0  44952-3 0  9992
2 44885  97.7944 275.8600 0012104  30.8878 329.3057 15.04018284354656
SHUNTIAN                
1 44886U 19093H   26181.52567428  .00003230  00000+0  29868-3 0  9992
2 44886  97.8017 269.6180 0012261  28.2464 331.9419 14.95219938354175
ELEKTRO-L 3             
1 44903U 19095A   26181.53026391 -.00000086  00000+0  00000+0 0  9994
2 44903   0.2899  82.0247 0001527   7.1184  96.3280  1.00272398 23846
GONETS-M 14             
1 44905U 19096A   26181.57189725  .00000094  00000+0  60516-3 0  9992
2 44905  82.5239  76.3435 0014057 119.9716 240.2761 12.42870381295343
GONETS-M 15             
1 44906U 19096B   26181.52078817  .00000170  00000+0  11565-2 0  9991
2 44906  82.5259  76.8387 0015507 142.5725 217.6438 12.42872148295308
GONETS-M 16             
1 44907U 19096C   26181.62727703  .00000054  00000+0  32082-3 0  9997
2 44907  82.5204  75.7187 0010322 183.3169 176.7844 12.42892016295302
RS-44 & BREEZE-KM R/B   
1 44909U 19096E   26181.45233901  .00000008  00000+0 -18766-4 0  9996
2 44909  82.5224 330.8897 0218503 113.2889 249.1374 12.79748923304043
JILIN-1 KUANFU 01       
1 45016U 20003A   26181.53230689  .00002777  00000+0  17094-3 0  9991
2 45016  97.5030 255.2273 0008179 252.8571 107.1764 15.10795798357343
XINGYUN-2 01            
1 45602U 20028A   26181.57796221  .00002316  00000+0  13906-3 0  9999
2 45602  97.4866 173.7130 0009797 148.1051 212.0775 15.11862278336864
XINGYUN-2 02            
1 45603U 20028B   26181.55896377  .00002535  00000+0  15298-3 0  9990
2 45603  97.5063 187.3151 0009664 219.7440 140.3083 15.11588675336859
HAIYANG-1D              
1 45721U 20036A   26181.57759471 -.00000011  00000+0  11501-4 0  9997
2 45721  98.4559 122.9666 0003928  99.8850 260.2779 14.34176991316899
M2 PATHFINDER           
1 45727U 20037E   26181.47988063  .00003059  00000+0  22134-3 0  9991
2 45727  97.8140  12.8603 0012730 107.3668 252.8951 15.04732911327490
GAOFEN DUOMO (GFDM)     
1 45856U 20042A   26181.55440678  .00000909  00000+0  13619-3 0  9993
2 45856  97.7745 240.9543 0011889  36.2591 323.9424 14.76898834322988
ZIYUAN 3-03 (ZY 3-03)   
1 45939U 20051A   26181.60232498  .00006382  00000+0  28771-3 0  9996
2 45939  97.2833 248.8938 0002109 271.5267  88.5728 15.21361722329381
NEMO-HD                 
1 46277U 20061F   26181.60382973  .00010300  00000+0  22132-3 0  9997
2 46277  97.1915 243.4228 0001615  74.4548 285.6880 15.44859388324056
NAPA-1                  
1 46320U 20061BA  26181.55726811  .00074537  00000+0  62271-3 0  9993
2 46320  97.2458 256.1916 0001724 181.0041 179.1218 15.69807264323837
JILIN-1 GAOFEN 3E       
1 46457U 20065D   26181.59047978  .00067045  00000+0  66999-3 0  9999
2 46457  97.2229 234.5234 0012260 116.5814 243.6704 15.65305879321853
JILIN-1 GAOFEN 3F       
1 46458U 20065E   26181.57574266  .00055970  00000+0  62906-3 0  9991
2 46458  97.2186 231.7776 0013735 104.9585 255.3195 15.62324494321798
JILIN-1 GAOFEN 3G       
1 46459U 20065F   26181.57555628  .00106199  00000+0  74738-3 0  9999
2 46459  97.2250 238.8147 0005283   3.9063 356.2242 15.73783775322045
JILIN-1 GAOFEN 3H       
1 46460U 20065G   26181.57871552  .00081438  00000+0  67974-3 0  9990
2 46460  97.2198 235.0603 0004102 263.0973  96.9823 15.69797975321989
HAIYANG-2C              
1 46469U 20066A   26181.54029699 -.00000285  00000+0 -18538-3 0  9999
2 46469  65.9945 182.0374 0008372 237.6280 122.3978 13.83376128291345
HJ-2A                   
1 46478U 20067A   26181.51545947  .00001045  00000+0  15702-3 0  9999
2 46478  97.8832 259.5726 0002882 203.5958 156.5120 14.76533301310227
HJ-2B                   
1 46479U 20067B   26181.55196034  .00000522  00000+0  81943-4 0  9993
2 46479  97.8898 260.6412 0001570  98.7279 261.4109 14.76574414310232
GONETS-M 17             
1 46486U 20068A   26181.57205630 -.00000036  00000+0 -32794-3 0  9998
2 46486  82.4991 339.1740 0022509   8.9353 351.2122 12.42873458260824
GONETS-M 18             
1 46487U 20068B   26181.53570865  .00000004  00000+0 -41876-4 0  9996
2 46487  82.4945 338.3094 0019731   5.7178 354.4124 12.42874262260809
