OBJECT_NAME,OBJECT_ID,EPOCH,MEAN_MOTION,ECCENTRICITY,INCLINATION,RA_OF_ASC_NODE,ARG_OF_PERICENTER,MEAN_ANOMALY,EPHEMERIS_TYPE,CLASSIFICATION_TYPE,NORAD_CAT_ID,ELEMENT_SET_NO,REV_AT_EPOCH,BSTAR,MEAN_MOTION_DOT,MEAN_MOTION_DDOT
CBERS 4A,2019-093E,2026-06-30T14:21:54.790848,14.81420513,.0000528,98.0193,249.0500,118.5065,241.6201,0,U,44883,999,35306,.10567433E-3,.773E-5,0
WEILAI 1R,2019-093F,2026-06-30T12:33:39.155040,15.00754958,.00172794,97.7878,271.4305,356.1868,3.9221,0,U,44884,999,35442,.36701015E-3,.4608E-4,0
FLORIPASAT-1,2019-093G,2026-06-30T12:46:18.636096,15.04018284,.00121043,97.7944,275.8600,30.8878,329.3057,0,U,44885,999,35465,.44951995E-3,.6162E-4,0
SHUNTIAN,2019-093H,2026-06-30T12:36:58.257792,14.95219938,.00122617,97.8017,269.6180,28.2464,331.9419,0,U,44886,999,35417,.29867847E-3,.323E-4,0
ELEKTRO-L 3,2019-095A,2026-06-30T12:43:34.801824,1.00272398,.00015271,0.2899,82.0247,7.1184,96.3280,0,U,44903,999,2384,0,-.86E-6,0
GONETS-M 14,2019-096A,2026-06-30T13:43:31.922400,12.42870381,.00140579,82.5239,76.3435,119.9716,240.2761,0,U,44905,999,29534,.60515955E-3,.94E-6,0
GONETS-M 15,2019-096B,2026-06-30T12:29:56.097888,12.42872148,.0015507,82.5259,76.8387,142.5725,217.6438,0,U,44906,999,29530,.11565132E-2,.17E-5,0
GONETS-M 16,2019-096C,2026-06-30T15:03:16.735392,12.42892016,.00103225,82.5204,75.7187,183.3169,176.7844,0,U,44907,999,29530,.32082132E-3,.54E-6,0
RS-44 & BREEZE-KM R/B,2019-096E,2026-06-30T10:51:22.090464,12.79748923,.02185039,82.5224,330.8897,113.2889,249.1374,0,U,44909,999,30404,-.18766128E-4,.8E-7,0
JILIN-1 KUANFU 01,2020-003A,2026-06-30T12:46:31.315296,15.10795798,.00081793,97.5030,255.2273,252.8571,107.1764,0,U,45016,999,35734,.17093758E-3,.2777E-4,0
XINGYUN-2 01,2020-028A,2026-06-30T13:52:15.934944,15.11862278,.00097972,97.4866,173.7130,148.1051,212.0775,0,U,45602,999,33686,.13906009E-3,.2316E-4,0
XINGYUN-2 02,2020-028B,2026-06-30T13:24:54.469728,15.11588675,.00096642,97.5063,187.3151,219.7440,140.3083,0,U,45603,999,33685,.15298281E-3,.2535E-4,0
HAIYANG-1D,2020-036A,2026-06-30T13:51:44.182944,14.34176991,.00039285,98.4559,122.9666,99.8850,260.2779,0,U,45721,999,31689,.1150061E-4,-.11E-6,0
M2 PATHFINDER,2020-037E,2026-06-30T11:31:01.686432,15.04732911,.00127307,97.8140,12.8603,107.3668,252.8951,0,U,45727,999,32749,.22134261E-3,.3059E-4,0
GAOFEN DUOMO (GFDM),2020-042A,2026-06-30T13:18:20.745792,14.76898834,.00118899,97.7745,240.9543,36.2591,323.9424,0,U,45856,999,32298,.13618505E-3,.909E-5,0
ZIYUAN 3-03 (ZY 3-03),2020-051A,2026-06-30T14:27:20.878272,15.21361722,.00021092,97.2833,248.8938,271.5267,88.5728,0,U,45939,999,32938,.28771315E-3,.6382E-4,0
NEMO-HD,2020-061F,2026-06-30T14:29:30.888672,15.44859388,.00016157,97.1915,243.4228,74.4548,285.6880,0,U,46277,999,32405,.22131871E-3,.103E-3,0
NAPA-1,2020-061BA,2026-06-30T13:22:27.964704,15.69807264,.00017249,97.2458,256.1916,181.0041,179.1218,0,U,46320,999,32383,.62270877E-3,.74537E-3,0
JILIN-1 GAOFEN 3E,2020-065D,2026-06-30T14:10:17.452992,15.65305879,.00122609,97.2229,234.5234,116.5814,243.6704,0,U,46457,999,32185,.66999173E-3,.67045E-3,0
JILIN-1 GAOFEN 3F,2020-065E,2026-06-30T13:49:04.165824,15.62324494,.00137355,97.2186,231.7776,104.9585,255.3195,0,U,46458,999,32179,.62906004E-3,.5597E-3,0
JILIN-1 GAOFEN 3G,2020-065F,2026-06-30T13:48:48.062592,15.73783775,.00052835,97.2250,238.8147,3.9063,356.2242,0,U,46459,999,32204,.74738062E-3,.106199E-2,0
JILIN-1 GAOFEN 3H,2020-065G,2026-06-30T13:53:21.020928,15.69797975,.0004102,97.2198,235.0603,263.0973,96.9823,0,U,46460,999,32198,.67974422E-3,.81438E-3,0
HAIYANG-2C,2020-066A,2026-06-30T12:58:01.659936,13.83376128,.00083729,65.9945,182.0374,237.6280,122.3978,0,U,46469,999,29134,-.18538473E-3,-.285E-5,0
HJ-2A,2020-067A,2026-06-30T12:22:15.698208,14.76533301,.00028823,97.8832,259.5726,203.5958,156.5120,0,U,46478,999,31022,.15702175E-3,.1045E-4,0
HJ-2B,2020-067B,2026-06-30T13:14:49.373376,14.76574414,.00015705,97.8898,260.6412,98.7279,261.4109,0,U,46479,999,31023,.81943325E-4,.522E-5,0
GONETS-M 17,2020-068A,2026-06-30T13:43:45.664320,12.42873458,.00225098,82.4991,339.1740,8.9353,351.2122,0,U,46486,999,26082,-.32794477E-3,-.36E-6,0
GONETS-M 18,2020-068B,2026-06-30T12:51:25.227360,12.42874262,.00197317,82.4945,338.3094,5.7178,354.4124,0,U,46487,999,26080,-.41875989E-4,.4E-7,0
